{
  "type": "FeatureCollection",
  "features": [
    {
      "type": "Feature",
      "properties": {
        "norad_id": 40010,
        "name": "KAZEOSAT 2",
        "group": "resource",
        "lat": 42.65256847598319,
        "lon": -163.6691610905569,
        "alt_km": 612.4436782118164,
        "timestamp": "2025-12-25T16:53:14.310960+00:00",
        "meta_object_name": "KAZEOSAT 2",
        "meta_object_id": "2014-033A",
        "meta_epoch": "2025-12-25T06:59:30.579360",
        "meta_mean_motion": 14.85187369,
        "meta_eccentricity": 0.00087064,
        "meta_inclination": 97.5496,
        "meta_ra_of_asc_node": 202.9578,
        "meta_arg_of_pericenter": 163.2714,
        "meta_mean_anomaly": 196.879,
        "meta_ephemeris_type": 0,
        "meta_classification_type": "U",
        "meta_norad_cat_id": 40010,
        "meta_element_set_no": 999,
        "meta_rev_at_epoch": 62314,
        "meta_bstar": 5.1658049e-05,
        "meta_mean_motion_dot": 3.93e-06,
        "meta_mean_motion_ddot": 0,
        "tle_line1": "1 40010U 14033A   25359.29132615  .00000393  00000+0  51658-4 0  9992",
        "tle_line2": "2 40010  97.5496 202.9578 0008706 163.2714 196.8790 14.85187369623143"
      },
      "geometry": {
        "type": "Point",
        "coordinates": [
          -163.6691610905569,
          42.65256847598319
        ]
      }
    },
    {
      "type": "Feature",
      "properties": {
        "norad_id": 40011,
        "name": "HODOYOSHI-4",
        "group": "resource",
        "lat": -58.93159065154507,
        "lon": -4.753370645775315,
        "alt_km": 610.4969361717731,
        "timestamp": "2025-12-25T16:53:14.310970+00:00",
        "meta_object_name": "HODOYOSHI-4",
        "meta_object_id": "2014-033B",
        "meta_epoch": "2025-12-25T06:07:40.963872",
        "meta_mean_motion": 14.87521603,
        "meta_eccentricity": 0.00241435,
        "meta_inclination": 97.5411,
        "meta_ra_of_asc_node": 187.5223,
        "meta_arg_of_pericenter": 158.9866,
        "meta_mean_anomaly": 201.2348,
        "meta_ephemeris_type": 0,
        "meta_classification_type": "U",
        "meta_norad_cat_id": 40011,
        "meta_element_set_no": 999,
        "meta_rev_at_epoch": 62294,
        "meta_bstar": 4.4997418e-05,
        "meta_mean_motion_dot": 3.58e-06,
        "meta_mean_motion_ddot": 0,
        "tle_line1": "1 40011U 14033B   25359.25533523  .00000358  00000+0  44997-4 0  9991",
        "tle_line2": "2 40011  97.5411 187.5223 0024143 158.9866 201.2348 14.87521603622940"
      },
      "geometry": {
        "type": "Point",
        "coordinates": [
          -4.753370645775315,
          -58.93159065154507
        ]
      }
    },
    {
      "type": "Feature",
      "properties": {
        "norad_id": 40013,
        "name": "DEIMOS-2",
        "group": "resource",
        "lat": -66.03136696043511,
        "lon": -107.43442644782714,
        "alt_km": 596.6725177859671,
        "timestamp": "2025-12-25T16:53:14.310980+00:00",
        "meta_object_name": "DEIMOS-2",
        "meta_object_id": "2014-033D",
        "meta_epoch": "2025-12-25T05:55:43.046400",
        "meta_mean_motion": 14.93023569,
        "meta_eccentricity": 0.00013264,
        "meta_inclination": 97.6049,
        "meta_ra_of_asc_node": 234.6349,
        "meta_arg_of_pericenter": 104.9216,
        "meta_mean_anomaly": 255.2151,
        "meta_ephemeris_type": 0,
        "meta_classification_type": "U",
        "meta_norad_cat_id": 40013,
        "meta_element_set_no": 999,
        "meta_rev_at_epoch": 61176,
        "meta_bstar": 0.00018574228,
        "meta_mean_motion_dot": 1.877e-05,
        "meta_mean_motion_ddot": 0,
        "tle_line1": "1 40013U 14033D   25359.24702600  .00001877  00000+0  18574-3 0  9994",
        "tle_line2": "2 40013  97.6049 234.6349 0001326 104.9216 255.2151 14.93023569611765"
      },
      "geometry": {
        "type": "Point",
        "coordinates": [
          -107.43442644782714,
          -66.03136696043511
        ]
      }
    },
    {
      "type": "Feature",
      "properties": {
        "norad_id": 40015,
        "name": "HODOYOSHI-3",
        "group": "resource",
        "lat": 39.58045103994423,
        "lon": 158.6207836831324,
        "alt_km": 632.9011302069612,
        "timestamp": "2025-12-25T16:53:14.310990+00:00",
        "meta_object_name": "HODOYOSHI-3",
        "meta_object_id": "2014-033F",
        "meta_epoch": "2025-12-25T05:23:07.074816",
        "meta_mean_motion": 14.84848105,
        "meta_eccentricity": 0.00325328,
        "meta_inclination": 97.6207,
        "meta_ra_of_asc_node": 164.5172,
        "meta_arg_of_pericenter": 205.5388,
        "meta_mean_anomaly": 154.4221,
        "meta_ephemeris_type": 0,
        "meta_classification_type": "U",
        "meta_norad_cat_id": 40015,
        "meta_element_set_no": 999,
        "meta_rev_at_epoch": 62180,
        "meta_bstar": 0.00020024414,
        "meta_mean_motion_dot": 1.665e-05,
        "meta_mean_motion_ddot": 0,
        "tle_line1": "1 40015U 14033F   25359.22438744  .00001665  00000+0  20024-3 0  9997",
        "tle_line2": "2 40015  97.6207 164.5172 0032532 205.5388 154.4221 14.84848105621804"
      },
      "geometry": {
        "type": "Point",
        "coordinates": [
          158.6207836831324,
          39.58045103994423
        ]
      }
    },
    {
      "type": "Feature",
      "properties": {
        "norad_id": 40053,
        "name": "SPOT 7",
        "group": "resource",
        "lat": 77.84317216669106,
        "lon": 20.1675910317443,
        "alt_km": 682.3708685251922,
        "timestamp": "2025-12-25T16:53:14.311000+00:00",
        "meta_object_name": "SPOT 7",
        "meta_object_id": "2014-034A",
        "meta_epoch": "2025-12-25T06:39:16.558272",
        "meta_mean_motion": 14.60749019,
        "meta_eccentricity": 0.0001538,
        "meta_inclination": 98.0885,
        "meta_ra_of_asc_node": 61.063,
        "meta_arg_of_pericenter": 82.3434,
        "meta_mean_anomaly": 277.7942,
        "meta_ephemeris_type": 0,
        "meta_classification_type": "U",
        "meta_norad_cat_id": 40053,
        "meta_element_set_no": 999,
        "meta_rev_at_epoch": 61174,
        "meta_bstar": 0.00011625534,
        "meta_mean_motion_dot": 5.21e-06,
        "meta_mean_motion_ddot": 0,
        "tle_line1": "1 40053U 14034A   25359.27727498  .00000521  00000+0  11626-3 0  9990",
        "tle_line2": "2 40053  98.0885  61.0630 0001538  82.3434 277.7942 14.60749019611747"
      },
      "geometry": {
        "type": "Point",
        "coordinates": [
          20.1675910317443,
          77.84317216669106
        ]
      }
    },
    {
      "type": "Feature",
      "properties": {
        "norad_id": 40072,
        "name": "SKYSAT-B",
        "group": "resource",
        "lat": 3.4987892405888155,
        "lon": 124.6107738267797,
        "alt_km": 606.4896573153828,
        "timestamp": "2025-12-25T16:53:14.311010+00:00",
        "meta_object_name": "SKYSAT-B",
        "meta_object_id": "2014-037D",
        "meta_epoch": "2025-12-25T03:10:51.973536",
        "meta_mean_motion": 14.87370343,
        "meta_eccentricity": 0.00068415,
        "meta_inclination": 98.3628,
        "meta_ra_of_asc_node": 303.4941,
        "meta_arg_of_pericenter": 115.6801,
        "meta_mean_anomaly": 244.5121,
        "meta_ephemeris_type": 0,
        "meta_classification_type": "U",
        "meta_norad_cat_id": 40072,
        "meta_element_set_no": 999,
        "meta_rev_at_epoch": 62008,
        "meta_bstar": 0.00020295064,
        "meta_mean_motion_dot": 1.774e-05,
        "meta_mean_motion_ddot": 0,
        "tle_line1": "1 40072U 14037D   25359.13254599  .00001774  00000+0  20295-3 0  9999",
        "tle_line2": "2 40072  98.3628 303.4941 0006841 115.6801 244.5121 14.87370343620081"
      },
      "geometry": {
        "type": "Point",
        "coordinates": [
          124.6107738267797,
          3.4987892405888155
        ]
      }
    },
    {
      "type": "Feature",
      "properties": {
        "norad_id": 40115,
        "name": "WORLDVIEW-3 (WV-3)",
        "group": "resource",
        "lat": -42.343202029086775,
        "lon": 79.07323506247698,
        "alt_km": 622.6529851132482,
        "timestamp": "2025-12-25T16:53:14.311021+00:00",
        "meta_object_name": "WORLDVIEW-3 (WV-3)",
        "meta_object_id": "2014-048A",
        "meta_epoch": "2025-12-25T05:45:26.855424",
        "meta_mean_motion": 14.84675628,
        "meta_eccentricity": 0.00020436,
        "meta_inclination": 97.8764,
        "meta_ra_of_asc_node": 71.3675,
        "meta_arg_of_pericenter": 129.1634,
        "meta_mean_anomaly": 230.9763,
        "meta_ephemeris_type": 0,
        "meta_classification_type": "U",
        "meta_norad_cat_id": 40115,
        "meta_element_set_no": 999,
        "meta_rev_at_epoch": 61609,
        "meta_bstar": 0.00013534915,
        "meta_mean_motion_dot": 1.092e-05,
        "meta_mean_motion_ddot": 0,
        "tle_line1": "1 40115U 14048A   25359.23989416  .00001092  00000+0  13535-3 0  9995",
        "tle_line2": "2 40115  97.8764  71.3675 0002043 129.1634 230.9763 14.84675628616091"
      },
      "geometry": {
        "type": "Point",
        "coordinates": [
          79.07323506247698,
          -42.343202029086775
        ]
      }
    }
  ]
}